BEIDOU-2 M6 (C14)       
1 38775U 12050B   24225.48967515 -.00000027  00000+0  00000+0 0  9996
2 38775  55.9566  85.2810 0012151 347.1868  12.8611  1.86231245 80761
GSAT0103 (GALILEO-FM3)  
1 38857U 12055A   24223.14187129 -.00000007  00000+0  00000+0 0  9996
2 38857  55.4276 120.1228 0003279 281.0623  78.9585  1.70473703 73487
SES-5                   
1 38652U 12036A   24225.95813087  .00000045  00000+0  00000+0 0  9999
2 38652   0.0702 289.3202 0002072 207.8741 174.5972  1.00273140 37734
GSAT-10                 
1 38779U 12051B   24225.41924259 -.00000154  00000+0  00000+0 0  9993
2 38779   0.0244 230.5941 0000461  22.5686 302.1330  1.00271870 43353
GPS BIIF-3  (PRN 24)    
1 38833U 12053A   24225.73923206  .00000036  00000+0  00000+0 0  9990
2 38833  53.5193 171.1594 0154953  56.6332 304.8244  2.00559541 85934
