<?xml version="1.0" encoding="UTF-8"?>
<ndm xmlns:xsi="http://www.w3.org/2001/XMLSchema-instance"
    xsi:noNamespaceSchemaLocation="https://sanaregistry.org/r/ndmxml_unqualified/ndmxml-2.0.0-master-2.0.xsd">
    <omm id="CCSDS_OMM_VERS" version="2.0">
        <header>
            <CREATION_DATE />
            <ORIGINATOR />
        </header>
        <body>
            <segment>
                <metadata>
                    <OBJECT_NAME>SES-5 (EGNOS/PRN 136)</OBJECT_NAME>
                    <OBJECT_ID>2012-036A</OBJECT_ID>
                    <CENTER_NAME>EARTH</CENTER_NAME>
                    <REF_FRAME>TEME</REF_FRAME>
                    <TIME_SYSTEM>UTC</TIME_SYSTEM>
                    <MEAN_ELEMENT_THEORY>SGP4</MEAN_ELEMENT_THEORY>
                </metadata>
                <data>
                    <meanElements>
                        <EPOCH>2024-08-12T22:59:42.507168</EPOCH>
                        <MEAN_MOTION>1.00273140</MEAN_MOTION>
                        <ECCENTRICITY>.0002072</ECCENTRICITY>
                        <INCLINATION>0.0702</INCLINATION>
                        <RA_OF_ASC_NODE>289.3202</RA_OF_ASC_NODE>
                        <ARG_OF_PERICENTER>207.8741</ARG_OF_PERICENTER>
                        <MEAN_ANOMALY>174.5972</MEAN_ANOMALY>
                    </meanElements>
                    <tleParameters>
                        <EPHEMERIS_TYPE>0</EPHEMERIS_TYPE>
                        <CLASSIFICATION_TYPE>U</CLASSIFICATION_TYPE>
                        <NORAD_CAT_ID>38652</NORAD_CAT_ID>
                        <ELEMENT_SET_NO>999</ELEMENT_SET_NO>
                        <REV_AT_EPOCH>3773</REV_AT_EPOCH>
                        <BSTAR>0</BSTAR>
                        <MEAN_MOTION_DOT>.45E-6</MEAN_MOTION_DOT>
                        <MEAN_MOTION_DDOT>0</MEAN_MOTION_DDOT>
                    </tleParameters>
                </data>
            </segment>
        </body>
    </omm>
    <omm id="CCSDS_OMM_VERS" version="2.0">
        <header>
            <CREATION_DATE />
            <ORIGINATOR />
        </header>
        <body>
            <segment>
                <metadata>
                    <OBJECT_NAME>BEIDOU-2 M6 (C14)</OBJECT_NAME>
                    <OBJECT_ID>2012-050B</OBJECT_ID>
                    <CENTER_NAME>EARTH</CENTER_NAME>
                    <REF_FRAME>TEME</REF_FRAME>
                    <TIME_SYSTEM>UTC</TIME_SYSTEM>
                    <MEAN_ELEMENT_THEORY>SGP4</MEAN_ELEMENT_THEORY>
                </metadata>
                <data>
                    <meanElements>
                        <EPOCH>2024-08-12T11:45:07.932960</EPOCH>
                        <MEAN_MOTION>1.86231245</MEAN_MOTION>
                        <ECCENTRICITY>.0012151</ECCENTRICITY>
                        <INCLINATION>55.9566</INCLINATION>
                        <RA_OF_ASC_NODE>85.2810</RA_OF_ASC_NODE>
                        <ARG_OF_PERICENTER>347.1868</ARG_OF_PERICENTER>
                        <MEAN_ANOMALY>12.8611</MEAN_ANOMALY>
                    </meanElements>
                    <tleParameters>
                        <EPHEMERIS_TYPE>0</EPHEMERIS_TYPE>
                        <CLASSIFICATION_TYPE>U</CLASSIFICATION_TYPE>
                        <NORAD_CAT_ID>38775</NORAD_CAT_ID>
                        <ELEMENT_SET_NO>999</ELEMENT_SET_NO>
                        <REV_AT_EPOCH>8076</REV_AT_EPOCH>
                        <BSTAR>0</BSTAR>
                        <MEAN_MOTION_DOT>-.27E-6</MEAN_MOTION_DOT>
                        <MEAN_MOTION_DDOT>0</MEAN_MOTION_DDOT>
                    </tleParameters>
                </data>
            </segment>
        </body>
    </omm>
    <omm id="CCSDS_OMM_VERS" version="2.0">
        <header>
            <CREATION_DATE />
            <ORIGINATOR />
        </header>
        <body>
            <segment>
                <metadata>
                    <OBJECT_NAME>GSAT-10 (GAGAN/PRN 128)</OBJECT_NAME>
                    <OBJECT_ID>2012-051B</OBJECT_ID>
                    <CENTER_NAME>EARTH</CENTER_NAME>
                    <REF_FRAME>TEME</REF_FRAME>
                    <TIME_SYSTEM>UTC</TIME_SYSTEM>
                    <MEAN_ELEMENT_THEORY>SGP4</MEAN_ELEMENT_THEORY>
                </metadata>
                <data>
                    <meanElements>
                        <EPOCH>2024-08-12T10:03:42.559776</EPOCH>
                        <MEAN_MOTION>1.00271870</MEAN_MOTION>
                        <ECCENTRICITY>.0000461</ECCENTRICITY>
                        <INCLINATION>0.0244</INCLINATION>
                        <RA_OF_ASC_NODE>230.5941</RA_OF_ASC_NODE>
                        <ARG_OF_PERICENTER>22.5686</ARG_OF_PERICENTER>
                        <MEAN_ANOMALY>302.1330</MEAN_ANOMALY>
                    </meanElements>
                    <tleParameters>
                        <EPHEMERIS_TYPE>0</EPHEMERIS_TYPE>
                        <CLASSIFICATION_TYPE>U</CLASSIFICATION_TYPE>
                        <NORAD_CAT_ID>38779</NORAD_CAT_ID>
                        <ELEMENT_SET_NO>999</ELEMENT_SET_NO>
                        <REV_AT_EPOCH>4335</REV_AT_EPOCH>
                        <BSTAR>0</BSTAR>
                        <MEAN_MOTION_DOT>-.154E-5</MEAN_MOTION_DOT>
                        <MEAN_MOTION_DDOT>0</MEAN_MOTION_DDOT>
                    </tleParameters>
                </data>
            </segment>
        </body>
    </omm>
    <omm id="CCSDS_OMM_VERS" version="2.0">
        <header>
            <CREATION_DATE />
            <ORIGINATOR />
        </header>
        <body>
            <segment>
                <metadata>
                    <OBJECT_NAME>GPS BIIF-3  (PRN 24)</OBJECT_NAME>
                    <OBJECT_ID>2012-053A</OBJECT_ID>
                    <CENTER_NAME>EARTH</CENTER_NAME>
                    <REF_FRAME>TEME</REF_FRAME>
                    <TIME_SYSTEM>UTC</TIME_SYSTEM>
                    <MEAN_ELEMENT_THEORY>SGP4</MEAN_ELEMENT_THEORY>
                </metadata>
                <data>
                    <meanElements>
                        <EPOCH>2024-08-12T17:44:29.649984</EPOCH>
                        <MEAN_MOTION>2.00559541</MEAN_MOTION>
                        <ECCENTRICITY>.0154953</ECCENTRICITY>
                        <INCLINATION>53.5193</INCLINATION>
                        <RA_OF_ASC_NODE>171.1594</RA_OF_ASC_NODE>
                        <ARG_OF_PERICENTER>56.6332</ARG_OF_PERICENTER>
                        <MEAN_ANOMALY>304.8244</MEAN_ANOMALY>
                    </meanElements>
                    <tleParameters>
                        <EPHEMERIS_TYPE>0</EPHEMERIS_TYPE>
                        <CLASSIFICATION_TYPE>U</CLASSIFICATION_TYPE>
                        <NORAD_CAT_ID>38833</NORAD_CAT_ID>
                        <ELEMENT_SET_NO>999</ELEMENT_SET_NO>
                        <REV_AT_EPOCH>8593</REV_AT_EPOCH>
                        <BSTAR>0</BSTAR>
                        <MEAN_MOTION_DOT>.36E-6</MEAN_MOTION_DOT>
                        <MEAN_MOTION_DDOT>0</MEAN_MOTION_DDOT>
                    </tleParameters>
                </data>
            </segment>
        </body>
    </omm>
    <omm id="CCSDS_OMM_VERS" version="2.0">
        <header>
            <CREATION_DATE />
            <ORIGINATOR />
        </header>
        <body>
            <segment>
                <metadata>
                    <OBJECT_NAME>GSAT0103 (GALILEO-FM3)</OBJECT_NAME>
                    <OBJECT_ID>2012-055A</OBJECT_ID>
                    <CENTER_NAME>EARTH</CENTER_NAME>
                    <REF_FRAME>TEME</REF_FRAME>
                    <TIME_SYSTEM>UTC</TIME_SYSTEM>
                    <MEAN_ELEMENT_THEORY>SGP4</MEAN_ELEMENT_THEORY>
                </metadata>
                <data>
                    <meanElements>
                        <EPOCH>2024-08-10T03:24:17.679456</EPOCH>
                        <MEAN_MOTION>1.70473703</MEAN_MOTION>
                        <ECCENTRICITY>.0003279</ECCENTRICITY>
                        <INCLINATION>55.4276</INCLINATION>
                        <RA_OF_ASC_NODE>120.1228</RA_OF_ASC_NODE>
                        <ARG_OF_PERICENTER>281.0623</ARG_OF_PERICENTER>
                        <MEAN_ANOMALY>78.9585</MEAN_ANOMALY>
                    </meanElements>
                    <tleParameters>
                        <EPHEMERIS_TYPE>0</EPHEMERIS_TYPE>
                        <CLASSIFICATION_TYPE>U</CLASSIFICATION_TYPE>
                        <NORAD_CAT_ID>38857</NORAD_CAT_ID>
                        <ELEMENT_SET_NO>999</ELEMENT_SET_NO>
                        <REV_AT_EPOCH>7348</REV_AT_EPOCH>
                        <BSTAR>0</BSTAR>
                        <MEAN_MOTION_DOT>-.7E-7</MEAN_MOTION_DOT>
                        <MEAN_MOTION_DDOT>0</MEAN_MOTION_DDOT>
                    </tleParameters>
                </data>
            </segment>
        </body>
    </omm>
    
</ndm>